{
  "type": "FeatureCollection",
  "features": [
    {
      "type": "Feature",
      "properties": {
        "norad_id": 54741,
        "name": "GALAXY 35 (G-35)",
        "group": "intelsat",
        "lat": 0.013877946542554262,
        "lon": 74.96783844851386,
        "alt_km": 35796.65529737023,
        "timestamp": "2025-12-12T05:47:28.440085+00:00",
        "meta_object_name": "GALAXY 35 (G-35)",
        "meta_object_id": "2022-170A",
        "meta_epoch": "2025-12-11T23:20:28.116096",
        "meta_mean_motion": 1.0027124,
        "meta_eccentricity": 0.0002508,
        "meta_inclination": 0.0136,
        "meta_ra_of_asc_node": 266.4457,
        "meta_arg_of_pericenter": 359.9145,
        "meta_mean_anomaly": 71.5916,
        "meta_ephemeris_type": 0,
        "meta_classification_type": "U",
        "meta_norad_cat_id": 54741,
        "meta_element_set_no": 999,
        "meta_rev_at_epoch": 1101,
        "meta_bstar": 0,
        "meta_mean_motion_dot": -1.54e-06,
        "meta_mean_motion_ddot": 0,
        "tle_line1": "1 54741U 22170A   25345.97254764 -.00000154  00000+0  00000+0 0  9995",
        "tle_line2": "2 54741   0.0136 266.4457 0002508 359.9145  71.5916  1.00271240 11017"
      },
      "geometry": {
        "type": "Point",
        "coordinates": [
          74.96783844851386,
          0.013877946542554262
        ]
      }
    },
    {
      "type": "Feature",
      "properties": {
        "norad_id": 54742,
        "name": "GALAXY 36 (G-36)",
        "group": "intelsat",
        "lat": 0.011245058323534677,
        "lon": 79.05819703194277,
        "alt_km": 35787.404253670655,
        "timestamp": "2025-12-12T05:47:28.440097+00:00",
        "meta_object_name": "GALAXY 36 (G-36)",
        "meta_object_id": "2022-170B",
        "meta_epoch": "2025-12-11T23:21:35.508096",
        "meta_mean_motion": 1.00272269,
        "meta_eccentricity": 3.908e-05,
        "meta_inclination": 0.0199,
        "meta_ra_of_asc_node": 90.6987,
        "meta_arg_of_pericenter": 197.4989,
        "meta_mean_anomaly": 54.1286,
        "meta_ephemeris_type": 0,
        "meta_classification_type": "U",
        "meta_norad_cat_id": 54742,
        "meta_element_set_no": 999,
        "meta_rev_at_epoch": 1089,
        "meta_bstar": 0,
        "meta_mean_motion_dot": -1.77e-06,
        "meta_mean_motion_ddot": 0,
        "tle_line1": "1 54742U 22170B   25345.97332764 -.00000177  00000+0  00000+0 0  9998",
        "tle_line2": "2 54742   0.0199  90.6987 0000390 197.4989  54.1286  1.00272269 10894"
      },
      "geometry": {
        "type": "Point",
        "coordinates": [
          79.05819703194277,
          0.011245058323534677
        ]
      }
    },
    {
      "type": "Feature",
      "properties": {
        "norad_id": 57493,
        "name": "GALAXY 37 (G-37)",
        "group": "intelsat",
        "lat": 0.014266998888473556,
        "lon": 41.07340258209106,
        "alt_km": 35792.788721573794,
        "timestamp": "2025-12-12T05:47:28.440108+00:00",
        "meta_object_name": "GALAXY 37 (G-37)",
        "meta_object_id": "2023-112A",
        "meta_epoch": "2025-12-11T23:10:51.536064",
        "meta_mean_motion": 1.00271457,
        "meta_eccentricity": 0.00021823,
        "meta_inclination": 0.0116,
        "meta_ra_of_asc_node": 26.3064,
        "meta_arg_of_pericenter": 238.8918,
        "meta_mean_anomaly": 36.4381,
        "meta_ephemeris_type": 0,
        "meta_classification_type": "U",
        "meta_norad_cat_id": 57493,
        "meta_element_set_no": 999,
        "meta_rev_at_epoch": 866,
        "meta_bstar": 0,
        "meta_mean_motion_dot": 5.7e-07,
        "meta_mean_motion_ddot": 0,
        "tle_line1": "1 57493U 23112A   25345.96587426  .00000057  00000+0  00000+0 0  9993",
        "tle_line2": "2 57493   0.0116  26.3064 0002182 238.8918  36.4381  1.00271457  8663"
      },
      "geometry": {
        "type": "Point",
        "coordinates": [
          41.07340258209106,
          0.014266998888473556
        ]
      }
    }
  ]
}